start=new Date('2023-03-06T00:00:00.000Z').valueOf();
sats=[{"NORAD_CAT_ID":"53232","CENTER_NAME":"EARTH","PERIAPSIS":"561.894","INCLINATION":"97.6536","GP_ID":"227582162","OBJECT_NAME":"STARLINK-4371","RA_OF_ASC_NODE":"127.4321","LAUNCH_DATE":"2022-07-22","MEAN_MOTION":"15.01263350","COUNTRY_CODE":"US","MEAN_MOTION_DOT":"0.00001487","SEMIMAJOR_AXIS":"6941.137","MEAN_ELEMENT_THEORY":"SGP4","DECAY_DATE":null,"TLE_LINE1":"1 53232U 22084AV  23064.88917627  .00001487  00000-0  12032-3 0  9995","ECCENTRICITY":"0.00015960","EPOCH":"2023-03-05T21:20:24.829728","REF_FRAME":"TEME","APOAPSIS":"564.109","FILE":"3852256","OBJECT_ID":"2022-084AV","BSTAR":"0.00012032000000","TLE_LINE2":"2 53232  97.6536 127.4321 0001596  95.5814 264.5592 15.01263350 34316","ARG_OF_PERICENTER":"95.5814","OBJECT_TYPE":"PAYLOAD","TIME_SYSTEM":"UTC","ELEMENT_SET_NO":"999","REV_AT_EPOCH":"3431","PERIOD":"95.919","EPHEMERIS_TYPE":"0","MEAN_ANOMALY":"264.5592","RCS_SIZE":"LARGE","MEAN_MOTION_DDOT":"0.0000000000000","SITE":"AFWTR","CLASSIFICATION_TYPE":"U"},{"ELEMENT_SET_NO":"999","TLE_LINE2":"2 53233  97.6549 127.4266 0001467 120.3998 239.7371 15.01265975 34310","TIME_SYSTEM":"UTC","OBJECT_TYPE":"PAYLOAD","ARG_OF_PERICENTER":"120.3998","REV_AT_EPOCH":"3431","BSTAR":"0.00007647000000","MEAN_MOTION_DDOT":"0.0000000000000","CLASSIFICATION_TYPE":"U","SITE":"AFWTR","PERIOD":"95.919","EPHEMERIS_TYPE":"0","MEAN_ANOMALY":"239.7371","RCS_SIZE":"LARGE","OBJECT_NAME":"STARLINK-4372","RA_OF_ASC_NODE":"127.4266","MEAN_MOTION":"15.01265975","COUNTRY_CODE":"US","LAUNCH_DATE":"2022-07-22","NORAD_CAT_ID":"53233","CENTER_NAME":"EARTH","PERIAPSIS":"561.975","GP_ID":"227582913","INCLINATION":"97.6549","ECCENTRICITY":"0.00014670","TLE_LINE1":"1 53233U 22084AW  23064.88547101  .00000923  00000-0  76470-4 0  9993","APOAPSIS":"564.012","EPOCH":"2023-03-05T21:15:04.695264","REF_FRAME":"TEME","OBJECT_ID":"2022-084AW","FILE":"3852256","MEAN_MOTION_DOT":"0.00000923","MEAN_ELEMENT_THEORY":"SGP4","SEMIMAJOR_AXIS":"6941.128","DECAY_DATE":null},{"BSTAR":"0.00009642100000","OBJECT_TYPE":"PAYLOAD","TLE_LINE2":"2 53234  97.6539 127.4244 0001209 102.2032 257.9328 15.01258592 35321","TIME_SYSTEM":"UTC","ARG_OF_PERICENTER":"102.2032","ELEMENT_SET_NO":"999","REV_AT_EPOCH":"3532","RCS_SIZE":"LARGE","EPHEMERIS_TYPE":"0","PERIOD":"95.920","MEAN_ANOMALY":"257.9328","SITE":"AFWTR","CLASSIFICATION_TYPE":"U","MEAN_MOTION_DDOT":"0.0000000000000","PERIAPSIS":"562.177","INCLINATION":"97.6539","GP_ID":"227583635","NORAD_CAT_ID":"53234","CENTER_NAME":"EARTH","RA_OF_ASC_NODE":"127.4244","LAUNCH_DATE":"2022-07-22","COUNTRY_CODE":"US","MEAN_MOTION":"15.01258592","OBJECT_NAME":"STARLINK-4368","SEMIMAJOR_AXIS":"6941.151","MEAN_ELEMENT_THEORY":"SGP4","DECAY_DATE":null,"MEAN_MOTION_DOT":"0.00001180","EPOCH":"2023-03-05T21:12:46.045728","REF_FRAME":"TEME","APOAPSIS":"563.855","FILE":"3852256","OBJECT_ID":"2022-084AX","ECCENTRICITY":"0.00012090","TLE_LINE1":"1 53234U 22084AX  23064.88386627  .00001180  00000-0  96421-4 0  9992"},{"MEAN_MOTION_DOT":"0.00009045","SEMIMAJOR_AXIS":"6917.864","MEAN_ELEMENT_THEORY":"SGP4","DECAY_DATE":null,"TLE_LINE1":"1 53242U 22086A   23064.78725509  .00009045  00000-0  58558-3 0  9994","ECCENTRICITY":"0.00015190","APOAPSIS":"540.780","EPOCH":"2023-03-05T18:53:38.839776","REF_FRAME":"TEME","OBJECT_ID":"2022-086A","FILE":"3852256","NORAD_CAT_ID":"53242","CENTER_NAME":"EARTH","PERIAPSIS":"538.678","GP_ID":"227582640","INCLINATION":"53.2169","OBJECT_NAME":"STARLINK-4056","RA_OF_ASC_NODE":"96.7624","COUNTRY_CODE":"US","MEAN_MOTION":"15.08845343","LAUNCH_DATE":"2022-07-24","PERIOD":"95.437","EPHEMERIS_TYPE":"0","MEAN_ANOMALY":"271.7060","RCS_SIZE":"LARGE","MEAN_MOTION_DDOT":"0.0000000000000","CLASSIFICATION_TYPE":"U","SITE":"AFETR","BSTAR":"0.00058558000000","ELEMENT_SET_NO":"999","OBJECT_TYPE":"PAYLOAD","TLE_LINE2":"2 53242  53.2169  96.7624 0001519  88.4106 271.7060 15.08845343 35261","TIME_SYSTEM":"UTC","ARG_OF_PERICENTER":"88.4106","REV_AT_EPOCH":"3526"},{"OBJECT_TYPE":"PAYLOAD","TLE_LINE2":"2 53243  53.2201 101.7632 0001586  67.5000 292.6160 15.08836488 35218","ARG_OF_PERICENTER":"67.5000","TIME_SYSTEM":"UTC","ELEMENT_SET_NO":"999","REV_AT_EPOCH":"3521","BSTAR":"0.00141740000000","MEAN_MOTION_DDOT":"0.0000000000000","SITE":"AFETR","CLASSIFICATION_TYPE":"U","EPHEMERIS_TYPE":"0","PERIOD":"95.438","MEAN_ANOMALY":"292.6160","RCS_SIZE":"LARGE","OBJECT_NAME":"STARLINK-4047","RA_OF_ASC_NODE":"101.7632","LAUNCH_DATE":"2022-07-24","MEAN_MOTION":"15.08836488","COUNTRY_CODE":"US","NORAD_CAT_ID":"53243","CENTER_NAME":"EARTH","PERIAPSIS":"538.659","INCLINATION":"53.2201","GP_ID":"227582890","TLE_LINE1":"1 53243U 22086B   23064.78864097  .00022340  00000-0  14174-2 0  9999","ECCENTRICITY":"0.00015860","EPOCH":"2023-03-05T18:55:38.579808","REF_FRAME":"TEME","APOAPSIS":"540.853","FILE":"3852256","OBJECT_ID":"2022-086B","MEAN_MOTION_DOT":"0.00022340","MEAN_ELEMENT_THEORY":"SGP4","SEMIMAJOR_AXIS":"6917.891","DECAY_DATE":null},{"SITE":"AFETR","CLASSIFICATION_TYPE":"U","MEAN_MOTION_DDOT":"0.0000000000000","RCS_SIZE":"LARGE","PERIOD":"95.438","EPHEMERIS_TYPE":"0","MEAN_ANOMALY":"259.2458","TLE_LINE2":"2 53244  53.2165 103.8958 0001502 100.8703 259.2458 15.08838903 35124","OBJECT_TYPE":"PAYLOAD","TIME_SYSTEM":"UTC","ARG_OF_PERICENTER":"100.8703","ELEMENT_SET_NO":"999","REV_AT_EPOCH":"3512","BSTAR":"0.00000708110000","REF_FRAME":"TEME","EPOCH":"2023-03-05T07:32:02.528160","APOAPSIS":"540.788","FILE":"3851939","OBJECT_ID":"2022-086C","TLE_LINE1":"1 53244U 22086C   23064.31391815 -.00000175  00000-0  70811-5 0  9998","ECCENTRICITY":"0.00015020","MEAN_ELEMENT_THEORY":"SGP4","SEMIMAJOR_AXIS":"6917.884","DECAY_DATE":null,"MEAN_MOTION_DOT":"-0.00000175","RA_OF_ASC_NODE":"103.8958","LAUNCH_DATE":"2022-07-24","MEAN_MOTION":"15.08838903","COUNTRY_CODE":"US","OBJECT_NAME":"STARLINK-4125","PERIAPSIS":"538.710","INCLINATION":"53.2165","GP_ID":"227549216","NORAD_CAT_ID":"53244","CENTER_NAME":"EARTH"},{"MEAN_MOTION_DDOT":"0.0000000000000","SITE":"AFETR","CLASSIFICATION_TYPE":"U","MEAN_ANOMALY":"240.8906","EPHEMERIS_TYPE":"0","PERIOD":"95.438","RCS_SIZE":"LARGE","REV_AT_EPOCH":"3513","TIME_SYSTEM":"UTC","TLE_LINE2":"2 53245  53.2172 104.1633 0001975 119.2284 240.8906 15.08840372 35137","OBJECT_TYPE":"PAYLOAD","ARG_OF_PERICENTER":"119.2284","ELEMENT_SET_NO":"999","BSTAR":"0.00007373400000","ECCENTRICITY":"0.00019750","TLE_LINE1":"1 53245U 22086D   23064.25503473  .00000886  00000-0  73734-4 0  9991","FILE":"3851939","OBJECT_ID":"2022-086D","EPOCH":"2023-03-05T06:07:15.000672","REF_FRAME":"TEME","APOAPSIS":"541.111","MEAN_MOTION_DOT":"0.00000886","DECAY_DATE":null,"SEMIMAJOR_AXIS":"6917.879","MEAN_ELEMENT_THEORY":"SGP4","OBJECT_NAME":"STARLINK-4124","LAUNCH_DATE":"2022-07-24","MEAN_MOTION":"15.08840372","COUNTRY_CODE":"US","RA_OF_ASC_NODE":"104.1633","CENTER_NAME":"EARTH","NORAD_CAT_ID":"53245","INCLINATION":"53.2172","GP_ID":"227548468","PERIAPSIS":"538.378"},{"ARG_OF_PERICENTER":"102.8547","TLE_LINE2":"2 53246  53.2152 102.9884 0001803 102.8547 257.2647 15.08846631 34047","OBJECT_TYPE":"PAYLOAD","TIME_SYSTEM":"UTC","ELEMENT_SET_NO":"999","REV_AT_EPOCH":"3404","BSTAR":"0.00007724800000","MEAN_MOTION_DDOT":"0.0000000000000","SITE":"AFETR","CLASSIFICATION_TYPE":"U","EPHEMERIS_TYPE":"0","PERIOD":"95.437","MEAN_ANOMALY":"257.2647","RCS_SIZE":"LARGE","OBJECT_NAME":"STARLINK-4131","RA_OF_ASC_NODE":"102.9884","LAUNCH_DATE":"2022-07-24","COUNTRY_CODE":"US","MEAN_MOTION":"15.08846631","NORAD_CAT_ID":"53246","CENTER_NAME":"EARTH","PERIAPSIS":"538.478","INCLINATION":"53.2152","GP_ID":"227549219","TLE_LINE1":"1 53246U 22086E   23064.51631634  .00000942  00000-0  77248-4 0  9999","ECCENTRICITY":"0.00018030","EPOCH":"2023-03-05T12:23:29.731776","REF_FRAME":"TEME","APOAPSIS":"540.972","FILE":"3851939","OBJECT_ID":"2022-086E","MEAN_MOTION_DOT":"0.00000942","SEMIMAJOR_AXIS":"6917.860","MEAN_ELEMENT_THEORY":"SGP4","DECAY_DATE":null},{"CLASSIFICATION_TYPE":"U","SITE":"AFETR","MEAN_MOTION_DDOT":"0.0000000000000","RCS_SIZE":"LARGE","EPHEMERIS_TYPE":"0","PERIOD":"95.437","MEAN_ANOMALY":"277.7771","ELEMENT_SET_NO":"999","OBJECT_TYPE":"PAYLOAD","TLE_LINE2":"2 53247  53.2152  96.7879 0001527  82.3395 277.7771 15.08851625 35267","ARG_OF_PERICENTER":"82.3395","TIME_SYSTEM":"UTC","REV_AT_EPOCH":"3526","BSTAR":"-0.00006929300000","APOAPSIS":"540.766","EPOCH":"2023-03-05T18:49:43.150080","REF_FRAME":"TEME","OBJECT_ID":"2022-086F","FILE":"3852256","ECCENTRICITY":"0.00015270","TLE_LINE1":"1 53247U 22086F   23064.78452720 -.00001391  00000-0 -69293-4 0  9998","MEAN_ELEMENT_THEORY":"SGP4","SEMIMAJOR_AXIS":"6917.845","DECAY_DATE":null,"MEAN_MOTION_DOT":"-0.00001391","RA_OF_ASC_NODE":"96.7879","COUNTRY_CODE":"US","MEAN_MOTION":"15.08851625","LAUNCH_DATE":"2022-07-24","OBJECT_NAME":"STARLINK-4061","PERIAPSIS":"538.654","GP_ID":"227582914","INCLINATION":"53.2152","NORAD_CAT_ID":"53247","CENTER_NAME":"EARTH"},{"OBJECT_NAME":"STARLINK-4135","RA_OF_ASC_NODE":"96.8033","COUNTRY_CODE":"US","MEAN_MOTION":"15.08829051","LAUNCH_DATE":"2022-07-24","NORAD_CAT_ID":"53248","CENTER_NAME":"EARTH","PERIAPSIS":"538.933","GP_ID":"227583636","INCLINATION":"53.2158","TLE_LINE1":"1 53248U 22086G   23064.78085935  .00008480  00000-0  55040-3 0  9997","ECCENTRICITY":"0.00012220","APOAPSIS":"540.624","EPOCH":"2023-03-05T18:44:26.247840","REF_FRAME":"TEME","OBJECT_ID":"2022-086G","FILE":"3852256","MEAN_MOTION_DOT":"0.00008480","MEAN_ELEMENT_THEORY":"SGP4","SEMIMAJOR_AXIS":"6917.914","DECAY_DATE":null,"ELEMENT_SET_NO":"999","TLE_LINE2":"2 53248  53.2158  96.8033 0001222 120.2486 239.8627 15.08829051 35269","OBJECT_TYPE":"PAYLOAD","TIME_SYSTEM":"UTC","ARG_OF_PERICENTER":"120.2486","REV_AT_EPOCH":"3526","BSTAR":"0.00055040000000","MEAN_MOTION_DDOT":"0.0000000000000","CLASSIFICATION_TYPE":"U","SITE":"AFETR","EPHEMERIS_TYPE":"0","PERIOD":"95.438","MEAN_ANOMALY":"239.8627","RCS_SIZE":"LARGE"}];
